STARLINK-3225           
1 49737U 21115P   26068.53896833  .00000901  00000+0  74690-4 0  9996
2 49737  53.2171 149.7979 0001669  90.6292 269.4892 15.08829140235511
PRSC-S1                 
1 65055U 25164A   26068.60758212  .00007316  00000+0  46631-3 0  9991
2 65055  41.1290 129.3637 0004466 348.3012  11.7698 15.08919510 33403
